[Satellite]
VERSION=1.1
NAME=ARIRANG-3 (KOMPSAT-3)
NICKNAME=ARIRANG-3 (KOMPSAT-3)
TLE1=1 38338U 12025B   15055.43003338  .00000602  00000-0  12964-3 0  9998
TLE2=2 38338  98.1187 355.0045 0013016  80.2256 280.0404 14.61871339147943
